1 31124U 07012H   08323.46556337  .00000398  00000-0  89121-4 0  9991
2 31124 098.0285 028.5776 0053493 192.5806 167.4055 14.60989428 84859
1 31124U 07012H   08324.49288549  .00000398  00000-0  89121-4 0  9992
2 31124 098.0281 029.5737 0053587 189.3060 170.7154 14.60989620 85002
1 31124U 07012H   08325.93113508  .00000398  00000-0  89121-4 0  9994
2 31124 098.0282 030.9688 0053510 184.8421 175.2200 14.60989795 85219
1 31124U 07012H   08327.23240996  .00000398  00000-0  89121-4 0  9991
2 31124 098.0287 032.2310 0053710 180.7370 179.3735 14.60989979 85404
1 31124U 07012H   08328.46519580  .00000398  00000-0  89121-4 0  9995
2 31124 098.0288 033.4267 0053765 176.8614 183.2926 14.60990406 85588
1 31124U 07012H   08329.83495762  .00000398  00000-0  89121-4 0  9992
2 31124 098.0286 034.7551 0053905 172.6080 187.5897 14.60990429 85784
1 31124U 07012H   08330.72530263 +.00000398 +00000-0 +89121-4 0  9998
2 31124 098.0285 035.6187 0053921 169.8413 190.3851 14.60990561085918
1 31124U 07012H   08331.06774340  .00000398  00000-0  89121-4 0  9992
2 31124 098.0288 035.9509 0053851 168.6888 191.5502 14.60990568 85965
1 31124U 07012H   08331.75262427 +.00000398 +00000-0 +89121-4 0  9996
2 31124 098.0288 036.6153 0053979 166.5678 193.6945 14.60990584086067
1 31124U 07012H   08332.09506479  .00000398  00000-0  89121-4 0  9992
2 31124 098.0285 036.9474 0053929 165.5082 194.7671 14.60990776 86113
1 31124U 07012H   08332.71145685 +.00000398 +00000-0 +89121-4 0  9999
2 31124 098.0286 037.5454 0053950 163.6812 196.6125 14.60990996086202
1 31124U 07012H   08333.19087340  .00000399  00000-0  89121-4 0  9996
2 31124 098.0285 038.0106 0054083 162.1355 198.1753 14.60991042 86279
1 31124U 07012H   08333.73877724 +.00000399 +00000-0 +89121-4 0  9999
2 31124 098.0283 038.5420 0053982 160.4341 199.8914 14.60991241086351
1 31124U 07012H   08334.21819420  .00000399  00000-0  89121-4 0  9992
2 31124 098.0280 039.0072 0054173 158.9204 201.4249 14.60991279 86420
1 31124U 07012H   08334.76609764 +.00000399 +00000-0 +89121-4 0  9990
2 31124 098.0280 039.5387 0054196 157.2398 203.1207 14.60991549086507
1 31124U 07012H   08335.72492949  .00000399  00000-0  89121-4 0  9992
2 31124 098.0272 040.4683 0054058 154.2270 206.1604 14.60991643 86645
1 31124U 07012H   08336.82073745  .00000399  00000-0  89121-4 0  9993
2 31124 098.0269 041.5312 0054249 150.8381 209.5842 14.60991784 86804
1 31124U 07012H   08337.91654441 +.00000399 +00000-0 +89121-4 0  9992
2 31124 098.0265 042.5937 0054366 147.4601 212.9927 14.60992091086962
1 31124U 07012H   08338.19049671  .00000399  00000-0  89121-4 0  9996
2 31124 098.0267 042.8594 0054420 146.6476 213.8163 14.60992137 87007
1 31124U 07012H   08338.46444837 +.00000399 +00000-0 +89121-4 0  9999
2 31124 098.0268 043.1252 0054414 145.7975 214.6749 14.60992348087047
1 31124U 07012H   08339.21781558  .00000399  00000-0  89121-4 0  9997
2 31124 098.0263 043.8556 0054530 143.5319 216.9608 14.60992299 87159
1 31124U 07012H   08339.76571840 +.00000399 +00000-0 +89121-4 0  9998
2 31124 098.0259 044.3864 0054462 141.8403 218.6646 14.60992521087239
1 31124U 07012H   08340.24513361  .00000399  00000-0  89121-4 0  9997
2 31124 098.0262 044.8514 0054506 140.3756 220.1428 14.60992685 87309
1 31124U 07012H   08340.72454861 +.00000399 +00000-0 +89121-4 0  9999
2 31124 098.0262 045.3162 0054330 138.8129 221.7151 14.60992766087372
1 31124U 07012H   08341.82035482  .00000399  00000-0  89121-4 0  9995
2 31124 098.0259 046.3790 0054548 135.4557 225.1030 14.60993019 87539
1 31124U 07012H   08342.77918454 +.00000399 +00000-0 +89121-4 0  9999
2 31124 098.0253 047.3089 0054645 132.5763 228.0042 14.60993080087678
1 31124U 07012H   08343.05313602  .00000399  00000-0  89121-4 0  9995
2 31124 098.0256 047.5746 0054648 131.7267 228.8618 14.60993201 87713
1 31124U 07012H   08343.87498916 +.00000399 +00000-0 +89121-4 0  9997
2 31124 098.0256 048.3714 0054704 129.2635 231.3401 14.60993332087838
1 31124U 07012H   08344.14894071  .00000399  00000-0  89121-4 0  9990
2 31124 098.0249 048.6371 0054721 128.4250 232.1864 14.60993362 87874
1 31124U 07012H   08344.76533058 +.00000399 +00000-0 +89121-4 0  9993
2 31124 098.0258 049.2356 0054640 126.5235 234.0990 14.60993471087968
1 31124U 07012H   08345.38172074  .00000399  00000-0  89121-4 0  9999
2 31124 098.0260 049.8335 0054692 124.5611 236.0757 14.60993644 88053
1 31124U 07012H   08345.72415930 +.00000399 +00000-0 +89121-4 0  9998
2 31124 098.0260 050.1657 0054577 123.4119 237.2290 14.60993706088108
1 31124U 07012H   08346.40903687  .00000399  00000-0  89121-4 0  9995
2 31124 098.0265 050.8303 0054648 121.2525 239.4016 14.60993750 88204
1 31124U 07012H   08346.81996326 +.00000399 +00000-0 +89121-4 0  9992
2 31124 098.0264 051.2288 0054614 119.9440 240.7171 14.60993789088268
1 31124U 07012H   08347.71030362  .00000399  00000-0  89121-4 0  9991
2 31124 098.0258 052.0920 0054687 117.2672 243.4093 14.60993930 88396
1 31124U 07012H   08348.73761863  .00000399  00000-0  89121-4 0  9991
2 31124 098.0256 053.0882 0054676 114.0756 246.6155 14.60994181 88548
1 31124U 07012H   08349.76493314  .00000399  00000-0  89121-4 0  9998
2 31124 098.0249 054.0843 0054703 110.9561 249.7490 14.60994498 88691
1 31124U 07012H   08350.72375955 +.00000399 +00000-0 +89121-4 0  9996
2 31124 098.0247 055.0137 0054693 107.8736 252.8411 14.60994721088836
1 31124U 07012H   08351.13468511  .00000399  00000-0  89121-4 0  9993
2 31124 098.0246 055.4122 0054812 106.6517 254.0681 14.60994781 88895
1 31124U 07012H   08351.68258570 +.00000399 +00000-0 +89121-4 0  9995
2 31124 098.0248 055.9436 0054780 104.9689 255.7568 14.60995002088973
1 31124U 07012H   08352.43594913  .00000399  00000-0  89121-4 0  9993
2 31124 098.0246 056.6743 0054854 102.6137 258.1193 14.60994993 89087
1 31124U 07012H   08352.70989918 +.00000399 +00000-0 +89121-4 0  9996
2 31124 098.0245 056.9397 0054798 101.6732 259.0605 14.60995061089121
1 31124U 07012H   08353.73721160 +.00000399 +00000-0 +89121-4 0  9993
2 31124 098.0242 057.9355 0054824 098.4781 262.2603 14.60995258089278
1 31124U 07012H   08354.07964930  .00000399  00000-0  89121-4 0  9995
2 31124 098.0240 058.2674 0054849 097.4250 263.3172 14.60995401 89320
1 31124U 07012H   08354.21662441 +.00000399 +00000-0 +89121-4 0  9993
2 31124 098.0240 058.4004 0054876 097.0718 263.6714 14.60995347089340
1 31124U 07012H   08355.24393579  .00000399  00000-0  89121-4 0  9990
2 31124 098.0242 059.3964 0054827 093.8795 266.8654 14.60995692 89499
1 31124U 07012H   08355.72334780 +.00000399 +00000-0 +89121-4 0  9992
2 31124 098.0242 059.8614 0054729 092.3189 268.4247 14.60995703089565
1 31124U 07012H   08356.47670973  .00000399  00000-0  89121-4 0  9992
2 31124 098.0241 060.5919 0054827 090.0767 270.6690 14.60995749 89676
1 31124U 07012H   08356.75065952 +.00000399 +00000-0 +89121-4 0  9998
2 31124 098.0241 060.8576 0054829 089.2326 271.5130 14.60995698089718
1 31124U 07012H   08357.84645750 +.00000399 +00000-0 +89121-4 0  9999
2 31124 098.0238 061.9205 0054881 086.0341 274.7100 14.60995881089878
1 31124U 07012H   08358.18889449  .00000399  00000-0  89121-4 0  9992
2 31124 098.0238 062.2525 0054869 085.0586 275.6859 14.60995859 89925
1 31124U 07012H   08358.66830571 +.00000399 +00000-0 +89121-4 0  9997
2 31124 098.0241 062.7176 0054866 083.4413 277.2996 14.60995969089993
1 31124U 07012H   08359.21620453  .00000399  00000-0  89121-4 0  9995
2 31124 098.0237 063.2487 0054881 081.6619 279.0768 14.60996083 90070
1 31124U 07012H   08360.38048837  .00000399  00000-0  89121-4 0  9995
2 31124 098.0239 064.3775 0054852 078.2055 282.5273 14.60996544 90249
1 31124U 07012H   08360.92838667 +.00000399 +00000-0 +89121-4 0  9993
2 31124 098.0237 064.9085 0054863 076.4085 284.3181 14.60996467090323
1 31124U 07012H   08361.75023382  .00000399  00000-0  89121-4 0  9995
2 31124 098.0239 065.7056 0054888 073.9297 286.7902 14.60996607 90442
1 31124U 07012H   08362.77754221  .00000399  00000-0  89121-4 0  9991
2 31124 098.0240 066.7014 0054834 070.8225 289.8869 14.60996733 90599
1 31124U 07012H   08363.80485006  .00000399  00000-0  89121-4 0  9998
2 31124 098.0239 067.6974 0054876 067.5575 293.1377 14.60996875 90745
1 31124U 07012H   08364.90064462  .00000399  00000-0  89121-4 0  9999
2 31124 098.0237 068.7598 0054817 064.2830 296.3982 14.60997167 90900
1 31124U 07012H   08364.90064462 +.00000399 +00000-0 +89121-4 0  9999
2 31124 098.0237 068.7598 0054817 064.2830 296.3982 14.60997167090900
1 31124U 07012H   08365.65400299 +.00000399 +00000-0 +89121-4 0  9994
2 31124 098.0234 069.4902 0054795 061.8824 298.7873 14.60997446091013
1 31124U 07012H   08365.92795163  .00000399  00000-0  89121-4 0  9991
2 31124 098.0232 069.7558 0054842 061.0394 299.6255 14.60997383 91056
1 31124U 07012H   08366.47584846 +.00000399 +00000-0 +89121-4 0  9996
2 31124 098.0232 070.2870 0054781 059.4262 301.2299 14.60997493091136
1 31124U 07012H   09001.09222045  .00000399  00000-0  89121-4 0  9991
2 31124 098.0232 070.8845 0054802 057.4562 303.1865 14.60997583 91229
1 31124U 07012H   09001.70860446 +.00000399 +00000-0 +89121-4 0  9992
2 31124 098.0226 071.4820 0054695 055.5394 305.0943 14.60997807091311
1 31124U 07012H   09002.11952656  .00000399  00000-0  89121-4 0  9993
2 31124 098.0225 071.8805 0054710 054.3383 306.2864 14.60997847 91375
1 31124U 07012H   09002.73590997 +.00000399 +00000-0 +89121-4 0  9997
2 31124 098.0222 072.4776 0054698 052.3699 308.2418 14.60997972091465
1 31124U 07012H   09003.14683220  .00000399  00000-0  89121-4 0  9995
2 31124 098.0221 072.8759 0054730 051.1323 309.4715 14.60998090 91529
1 31124U 07012H   09003.83170230 +.00000399 +00000-0 +89121-4 0  9993
2 31124 098.0220 073.5400 0054654 049.0954 311.4941 14.60998220091620
1 31124U 07012H   09004.17413727  .00000399  00000-0  89121-4 0  9992
2 31124 098.0221 073.8717 0054643 048.0123 312.5683 14.60998174 91678
